BEIDOU-2 IGSO-1 (C06)   
1 36828U 10036A   23332.48032844 -.00000047  00000+0  00000+0 0  9993
2 36828  54.2367 171.3949 0038045 190.8047 345.6450  1.00285965 48868
BEIDOU-2 G4 (C04)       
1 37210U 10057A   23332.77684594 -.00000104  00000+0  00000+0 0  9993
2 37210   1.3708  64.3818 0008227 180.9233 261.7442  1.00270716 47954
BEIDOU-2 IGSO-2 (C07)   
1 37256U 10068A   23332.78391515 -.00000214  00000+0  00000+0 0  9996
2 37256  49.2556 283.2712 0030065 213.6174 319.2584  1.00256117 47454
BEIDOU-2 IGSO-3 (C08)   
1 37384U 11013A   23333.18296281 -.00000200  00000+0  00000+0 0  9993
2 37384  61.0608  49.0622 0027460 182.2091   8.7200  1.00259981 46331
BEIDOU-2 IGSO-4 (C09)   
1 37763U 11038A   23332.53640089  .00000027  00000+0  00000+0 0  9994
2 37763  54.5095 173.9522 0112468 227.0524 312.2865  1.00257159 45308
BEIDOU-2 IGSO-5 (C10)   
1 37948U 11073A   23332.33401258 -.00000156  00000+0  00000+0 0  9993
2 37948  49.3824 282.9487 0093118 221.0813 135.5894  1.00253754 43786
BEIDOU-2 G5 (C05)       
1 38091U 12008A   23332.82836340  .00000065  00000+0  00000+0 0  9998
2 38091   1.9157  69.7152 0008660 200.7988 153.9663  1.00266990 43025
BEIDOU-2 M3 (C11)       
1 38250U 12018A   23330.96347785 -.00000091  00000+0  00000+0 0  9999
2 38250  56.4657 336.0978 0025477 261.8440  97.8867  1.86231169 78567
BEIDOU-2 M4 (C12)       
1 38251U 12018B   23332.50541681 -.00000093  00000+0  00000+0 0  9995
2 38251  56.3744 335.3332 0016400 264.5566  95.2707  1.86231963 78944
BEIDOU-2 M6 (C14)       
1 38775U 12050B   23332.21504636 -.00000036  00000+0  00000+0 0  9996
2 38775  55.7570  93.9235 0010740 334.3202  25.5889  1.86231083 75956
BEIDOU-2 G6 (C02)       
1 38953U 12059A   23333.04824293 -.00000166  00000+0  00000+0 0  9993
2 38953   2.0464  81.6383 0007846 286.8596 160.5406  1.00269501 40712
BEIDOU-3S IGSO-1S (C31) 
1 40549U 15019A   23332.28833891 -.00000182  00000+0  00000+0 0  9993
2 40549  50.9481 306.5703 0036688 195.9127 121.3454  1.00293519 31723
BEIDOU-3S M2S (C57)     
1 40748U 15037A   23330.55958131 -.00000091  00000+0  00000+0 0  9996
2 40748  55.6136 333.9458 0012930 255.1022 104.7722  1.86233126 56734
BEIDOU-3S M1S (C58)     
1 40749U 15037B   23332.44063002 -.00000094  00000+0  00000+0 0  9994
2 40749  55.6157 333.8686 0006318 305.5228  54.4306  1.86232951 56768
BEIDOU-3S IGSO-2S (C56) 
1 40938U 15053A   23333.18108203 -.00000146  00000+0  00000+0 0  9995
2 40938  50.6763 269.7494 0046615 193.6097 125.2818  1.00263355 30017
BEIDOU-2 IGSO-6 (C13)   
1 41434U 16021A   23332.67451860 -.00000179  00000+0  00000+0 0  9992
2 41434  58.8768  47.3969 0049636 222.1199 136.4887  1.00266133 28135
BEIDOU-2 G7 (C03)       
1 41586U 16037A   23332.81130079 -.00000346  00000+0  00000+0 0  9995
2 41586   1.4287  65.8345 0008631 314.2355  89.9953  1.00274997 27450
BEIDOU-3 M1 (C19)       
1 43001U 17069A   23331.44434046 -.00000037  00000+0  00000+0 0  9991
2 43001  55.9078  94.0188 0008083 291.1253  68.7495  1.86231359 41233
BEIDOU-3 M2 (C20)       
1 43002U 17069B   23331.38122065 -.00000037  00000+0  00000+0 0  9990
2 43002  55.9070  94.0574 0005588 320.0610  39.8589  1.86231005 41221
BEIDOU-3 M7 (C27)       
1 43107U 18003A   23332.74254751 -.00000096  00000+0  00000+0 0  9999
2 43107  55.0692 334.5510 0002634  51.8698 308.1668  1.86232443 40006
BEIDOU-3 M8 (C28)       
1 43108U 18003B   23332.14439714 -.00000096  00000+0  00000+0 0  9998
2 43108  55.0626 334.5581 0005032 262.1957  97.7610  1.86230917 40004
BEIDOU-3 M4 (C22)       
1 43207U 18018A   23329.36456570 -.00000025  00000+0  00000+0 0  9995
2 43207  55.8651  94.1844 0003373   7.4273 352.5415  1.86231205 39338
BEIDOU-3 M3 (C21)       
1 43208U 18018B   23332.11597257 -.00000036  00000+0  00000+0 0  9993
2 43208  55.8665  94.0968 0005648 304.3498  55.5590  1.86231418 39380
BEIDOU-3 M9 (C29)       
1 43245U 18029A   23332.33848096 -.00000095  00000+0  00000+0 0  9995
2 43245  54.9601 332.2912 0002189 267.3546  92.6303  1.86232622 38545
BEIDOU-3 M10 (C30)      
1 43246U 18029B   23331.19449288 -.00000094  00000+0  00000+0 0  9998
2 43246  54.9583 332.3591 0004007 339.4125  20.5842  1.86232757 38507
BEIDOU-2 IGSO-7 (C16)   
1 43539U 18057A   23332.50354638 -.00000050  00000+0  00000+0 0  9996
2 43539  55.1210 171.1109 0063769 229.1162 320.5120  1.00257502 19807
BEIDOU-3 M5 (C23)       
1 43581U 18062A   23329.26698517  .00000047  00000+0  00000+0 0  9990
2 43581  54.1597 214.1196 0002575 316.8467  43.2182  1.86231798 36220
BEIDOU-3 M6 (C24)       
1 43582U 18062B   23332.35556375  .00000045  00000+0  00000+0 0  9998
2 43582  54.1589 214.0038 0006759  28.8664 331.2665  1.86229832 36281
BEIDOU-3 M12 (C26)      
1 43602U 18067A   23332.29109114  .00000048  00000+0  00000+0 0  9997
2 43602  54.2473 212.6690 0008052  25.8831 334.2537  1.86231508 35762
BEIDOU-3 M11 (C25)      
1 43603U 18067B   23332.42492697  .00000047  00000+0  00000+0 0  9993
2 43603  54.2444 212.6300 0004838  20.2956 339.8202  1.86231479 35794
BEIDOU-3 M13 (C32)      
1 43622U 18072A   23330.77314068 -.00000036  00000+0  00000+0 0  9990
2 43622  55.8359  93.6751 0004952 281.5926  78.3130  1.86231172 35278
BEIDOU-3 M14 (C33)      
1 43623U 18072B   23332.24945491 -.00000036  00000+0  00000+0 0  9995
2 43623  55.8389  93.6187 0002354 318.5059  41.4391  1.86231202 35293
BEIDOU-3 M16 (C35)      
1 43647U 18078A   23332.95016324 -.00000094  00000+0  00000+0 0  9993
2 43647  54.8563 332.3857 0006789 358.6234   1.3838  1.86232308 34822
BEIDOU-3 M15 (C34)      
1 43648U 18078B   23333.07924279 -.00000094  00000+0  00000+0 0  9995
2 43648  54.8518 332.3847 0003702 357.0702   2.9367  1.86232214 34849
BEIDOU-3 G1 (C59)       
1 43683U 18085A   23332.77284287 -.00000269  00000+0  00000+0 0  9990
2 43683   1.7086 118.9748 0001384  19.3261 347.4310  1.00270499 18726
BEIDOU-3 M17 (C36)      
1 43706U 18093A   23332.15312523  .00000047  00000+0  00000+0 0  9995
2 43706  54.2419 213.9444 0007461 291.8088  68.2074  1.86232023 34188
BEIDOU-3 M18 (C37)      
1 43707U 18093B   23332.55702450  .00000044  00000+0  00000+0 0  9999
2 43707  54.2427 213.9225 0006844 328.0735  31.9808  1.86229872 34181
BEIDOU-3 IGSO-1 (C38)   
1 44204U 19023A   23332.64974538 -.00000237  00000+0  00000+0 0  9999
2 44204  57.3449  47.3449 0024210 201.3187 170.2670  1.00257021 17009
BEIDOU-2 G8 (C01)       
1 44231U 19027A   23331.91432566 -.00000238  00000+0  00000+0 0  9993
2 44231   1.4512  71.6957 0004898 166.8467 301.7361  1.00273915 16737
BEIDOU-3 IGSO-2 (C39)   
1 44337U 19035A   23332.32951712 -.00000053  00000+0  00000+0 0  9999
2 44337  55.1575 167.0424 0033125 194.2671 300.2341  1.00248101 16321
BEIDOU-3 M24 (C46)      
1 44542U 19061A   23332.09108962  .00000048  00000+0  00000+0 0  9994
2 44542  54.4692 214.1934 0008791   3.9904 356.1120  1.86231506 28432
BEIDOU-3 M23 (C45)      
1 44543U 19061B   23333.02378953  .00000040  00000+0  00000+0 0  9990
2 44543  54.4676 214.1308 0005582 359.5357 177.8896  1.86231874 28444
BEIDOU-3 IGSO-3 (C40)   
1 44709U 19073A   23332.29406004 -.00000211  00000+0  00000+0 0  9995
2 44709  56.3958 290.8581 0033948 190.4763 169.3805  1.00256108 15115
BEIDOU-3 M22 (C44)      
1 44793U 19078A   23332.47334227 -.00000095  00000+0  00000+0 0  9990
2 44793  54.7048 332.3587 0005607   3.6007 356.4132  1.86232109 27298
BEIDOU-3 M21 (C43)      
1 44794U 19078B   23328.30812129 -.00000080  00000+0  00000+0 0  9994
2 44794  54.6812 332.4836 0003795 348.3025  11.7121  1.86232476 27229
BEIDOU-3 M19 (C41)      
1 44864U 19090A   23332.30686590 -.00000036  00000+0  00000+0 0  9993
2 44864  55.7715  93.8056 0016293 272.5799  81.9638  1.86231658 26879
BEIDOU-3 M20 (C42)      
1 44865U 19090B   23332.72459397 -.00000033  00000+0  00000+0 0  9990
2 44865  55.7734  93.8247 0013850 286.2848  78.0983  1.86231624 26879
BEIDOU-3 G2 (C60)       
1 45344U 20017A   23332.79146684 -.00000134  00000+0  00000+0 0  9995
2 45344   2.1091  20.6481 0003584 225.4453 186.2991  1.00271804 13925
BEIDOU-3 G3 (C61)       
1 45807U 20040A   23333.05346429 -.00000345  00000+0  00000+0 0  9998
2 45807   0.5797   3.5840 0009965 306.1942 247.7345  1.00269157 12745
BEIDOU-3 G4             
1 56564U 23066A   23332.77684594 -.00000102  00000+0  00000+0 0  9998
2 56564   2.6291 288.4960 0004550 238.4909 340.0329  1.00273478  2054
